{
  "type": "FeatureCollection",
  "features": [
    {
      "type": "Feature",
      "properties": {
        "norad_id": 25590,
        "name": "COSMOS 2361",
        "group": "musson",
        "lat": -79.02734651588504,
        "lon": -65.90795567091146,
        "alt_km": 981.8337035833429,
        "timestamp": "2025-12-26T13:39:19.245798+00:00",
        "meta_object_name": "COSMOS 2361",
        "meta_object_id": "1998-076A",
        "meta_epoch": "2025-12-26T00:22:01.527744",
        "meta_mean_motion": 13.73218941,
        "meta_eccentricity": 0.00303552,
        "meta_inclination": 82.9346,
        "meta_ra_of_asc_node": 334.2672,
        "meta_arg_of_pericenter": 227.1925,
        "meta_mean_anomaly": 195.3497,
        "meta_ephemeris_type": 0,
        "meta_classification_type": "U",
        "meta_norad_cat_id": 25590,
        "meta_element_set_no": 999,
        "meta_rev_at_epoch": 35293,
        "meta_bstar": 5.6917113e-05,
        "meta_mean_motion_dot": 6.8e-07,
        "meta_mean_motion_ddot": 0,
        "tle_line1": "1 25590U 98076A   25360.01529546  .00000068  00000+0  56917-4 0  9994",
        "tle_line2": "2 25590  82.9346 334.2672 0030355 227.1925 195.3497 13.73218941352935"
      },
      "geometry": {
        "type": "Point",
        "coordinates": [
          -65.90795567091146,
          -79.02734651588504
        ]
      }
    },
    {
      "type": "Feature",
      "properties": {
        "norad_id": 26818,
        "name": "COSMOS 2378",
        "group": "musson",
        "lat": 36.04345593834728,
        "lon": -5.346519614388776,
        "alt_km": 997.7992535157946,
        "timestamp": "2025-12-26T13:39:19.245820+00:00",
        "meta_object_name": "COSMOS 2378",
        "meta_object_id": "2001-023A",
        "meta_epoch": "2025-12-26T01:33:12.760992",
        "meta_mean_motion": 13.74143054,
        "meta_eccentricity": 0.00332481,
        "meta_inclination": 82.9272,
        "meta_ra_of_asc_node": 349.8438,
        "meta_arg_of_pericenter": 167.5875,
        "meta_mean_anomaly": 256.1209,
        "meta_ephemeris_type": 0,
        "meta_classification_type": "U",
        "meta_norad_cat_id": 26818,
        "meta_element_set_no": 999,
        "meta_rev_at_epoch": 23106,
        "meta_bstar": 4.077509e-05,
        "meta_mean_motion_dot": 5.4e-07,
        "meta_mean_motion_ddot": 0,
        "tle_line1": "1 26818U 01023A   25360.06473103  .00000054  00000+0  40775-4 0  9996",
        "tle_line2": "2 26818  82.9272 349.8438 0033248 167.5875 256.1209 13.74143054231064"
      },
      "geometry": {
        "type": "Point",
        "coordinates": [
          -5.346519614388776,
          36.04345593834728
        ]
      }
    },
    {
      "type": "Feature",
      "properties": {
        "norad_id": 27436,
        "name": "COSMOS 2389",
        "group": "musson",
        "lat": -65.60775257672759,
        "lon": -79.08546751904916,
        "alt_km": 987.8811318362996,
        "timestamp": "2025-12-26T13:39:19.245833+00:00",
        "meta_object_name": "COSMOS 2389",
        "meta_object_id": "2002-026A",
        "meta_epoch": "2025-12-26T05:46:43.678848",
        "meta_mean_motion": 13.75156079,
        "meta_eccentricity": 0.00470185,
        "meta_inclination": 82.9514,
        "meta_ra_of_asc_node": 296.9907,
        "meta_arg_of_pericenter": 23.859,
        "meta_mean_anomaly": 86.3341,
        "meta_ephemeris_type": 0,
        "meta_classification_type": "U",
        "meta_norad_cat_id": 27436,
        "meta_element_set_no": 999,
        "meta_rev_at_epoch": 18334,
        "meta_bstar": 6.6808591e-05,
        "meta_mean_motion_dot": 8e-07,
        "meta_mean_motion_ddot": 0,
        "tle_line1": "1 27436U 02026A   25360.24078332  .00000080  00000+0  66809-4 0  9997",
        "tle_line2": "2 27436  82.9514 296.9907 0047018  23.8590  86.3341 13.75156079183340"
      },
      "geometry": {
        "type": "Point",
        "coordinates": [
          -79.08546751904916,
          -65.60775257672759
        ]
      }
    },
    {
      "type": "Feature",
      "properties": {
        "norad_id": 27818,
        "name": "COSMOS 2398",
        "group": "musson",
        "lat": 69.54646415319174,
        "lon": 63.125076971313064,
        "alt_km": 964.3526652780965,
        "timestamp": "2025-12-26T13:39:19.245845+00:00",
        "meta_object_name": "COSMOS 2398",
        "meta_object_id": "2003-023A",
        "meta_epoch": "2025-12-26T05:07:17.996736",
        "meta_mean_motion": 13.72387226,
        "meta_eccentricity": 0.0032681,
        "meta_inclination": 82.9482,
        "meta_ra_of_asc_node": 262.7699,
        "meta_arg_of_pericenter": 75.9149,
        "meta_mean_anomaly": 77.3477,
        "meta_ephemeris_type": 0,
        "meta_classification_type": "U",
        "meta_norad_cat_id": 27818,
        "meta_element_set_no": 999,
        "meta_rev_at_epoch": 13001,
        "meta_bstar": 6.7800998e-05,
        "meta_mean_motion_dot": 7.8e-07,
        "meta_mean_motion_ddot": 0,
        "tle_line1": "1 27818U 03023A   25360.21340274  .00000078  00000+0  67801-4 0  9993",
        "tle_line2": "2 27818  82.9482 262.7699 0032681  75.9149  77.3477 13.72387226130018"
      },
      "geometry": {
        "type": "Point",
        "coordinates": [
          63.125076971313064,
          69.54646415319174
        ]
      }
    },
    {
      "type": "Feature",
      "properties": {
        "norad_id": 28380,
        "name": "COSMOS 2407",
        "group": "musson",
        "lat": 39.160722040157275,
        "lon": 16.876594655653314,
        "alt_km": 989.9697225539039,
        "timestamp": "2025-12-26T13:39:19.245856+00:00",
        "meta_object_name": "COSMOS 2407",
        "meta_object_id": "2004-028A",
        "meta_epoch": "2025-12-26T01:31:13.832256",
        "meta_mean_motion": 13.763151,
        "meta_eccentricity": 0.00396832,
        "meta_inclination": 82.9593,
        "meta_ra_of_asc_node": 203.0276,
        "meta_arg_of_pericenter": 18.3923,
        "meta_mean_anomaly": 137.8378,
        "meta_ephemeris_type": 0,
        "meta_classification_type": "U",
        "meta_norad_cat_id": 28380,
        "meta_element_set_no": 999,
        "meta_rev_at_epoch": 7606,
        "meta_bstar": 3.602448e-05,
        "meta_mean_motion_dot": 5.1e-07,
        "meta_mean_motion_ddot": 0,
        "tle_line1": "1 28380U 04028A   25360.06335454  .00000051  00000+0  36024-4 0  9995",
        "tle_line2": "2 28380  82.9593 203.0276 0039683  18.3923 137.8378 13.76315100 76067"
      },
      "geometry": {
        "type": "Point",
        "coordinates": [
          16.876594655653314,
          39.160722040157275
        ]
      }
    },
    {
      "type": "Feature",
      "properties": {
        "norad_id": 28521,
        "name": "COSMOS 2414",
        "group": "musson",
        "lat": -77.69448305811981,
        "lon": 28.7706571786807,
        "alt_km": 971.5363326940205,
        "timestamp": "2025-12-26T13:39:19.245868+00:00",
        "meta_object_name": "COSMOS 2414",
        "meta_object_id": "2005-002A",
        "meta_epoch": "2025-12-26T05:29:20.936256",
        "meta_mean_motion": 13.879046,
        "meta_eccentricity": 0.00414345,
        "meta_inclination": 82.9488,
        "meta_ra_of_asc_node": 174.4596,
        "meta_arg_of_pericenter": 102.3053,
        "meta_mean_anomaly": 258.2754,
        "meta_ephemeris_type": 0,
        "meta_classification_type": "U",
        "meta_norad_cat_id": 28521,
        "meta_element_set_no": 999,
        "meta_rev_at_epoch": 5982,
        "meta_bstar": 4.4991255e-05,
        "meta_mean_motion_dot": 7e-07,
        "meta_mean_motion_ddot": 0,
        "tle_line1": "1 28521U 05002A   25360.22871454  .00000070  00000+0  44991-4 0  9991",
        "tle_line2": "2 28521  82.9488 174.4596 0041434 102.3053 258.2754 13.87904600 59820"
      },
      "geometry": {
        "type": "Point",
        "coordinates": [
          28.7706571786807,
          -77.69448305811981
        ]
      }
    },
    {
      "type": "Feature",
      "properties": {
        "norad_id": 32052,
        "name": "COSMOS 2429",
        "group": "musson",
        "lat": 59.265079037577145,
        "lon": 141.1554180563745,
        "alt_km": 989.5621715581474,
        "timestamp": "2025-12-26T13:39:19.245879+00:00",
        "meta_object_name": "COSMOS 2429",
        "meta_object_id": "2007-038A",
        "meta_epoch": "2025-12-26T00:51:08.061408",
        "meta_mean_motion": 13.75150637,
        "meta_eccentricity": 0.00384448,
        "meta_inclination": 82.9809,
        "meta_ra_of_asc_node": 333.5069,
        "meta_arg_of_pericenter": 1.214,
        "meta_mean_anomaly": 358.9103,
        "meta_ephemeris_type": 0,
        "meta_classification_type": "U",
        "meta_norad_cat_id": 32052,
        "meta_element_set_no": 999,
        "meta_rev_at_epoch": 91785,
        "meta_bstar": 4.6145348e-05,
        "meta_mean_motion_dot": 6e-07,
        "meta_mean_motion_ddot": 0,
        "tle_line1": "1 32052U 07038A   25360.03550997  .00000060  00000+0  46145-4 0  9993",
        "tle_line2": "2 32052  82.9809 333.5069 0038444   1.2140 358.9103 13.75150637917857"
      },
      "geometry": {
        "type": "Point",
        "coordinates": [
          141.1554180563745,
          59.265079037577145
        ]
      }
    },
    {
      "type": "Feature",
      "properties": {
        "norad_id": 35635,
        "name": "COSMOS 2454",
        "group": "musson",
        "lat": 50.06974589589211,
        "lon": 166.65623566792928,
        "alt_km": 910.1626051761705,
        "timestamp": "2025-12-26T13:39:19.245890+00:00",
        "meta_object_name": "COSMOS 2454",
        "meta_object_id": "2009-039A",
        "meta_epoch": "2025-12-26T00:09:39.040704",
        "meta_mean_motion": 13.89930294,
        "meta_eccentricity": 0.00199493,
        "meta_inclination": 82.9559,
        "meta_ra_of_asc_node": 158.5879,
        "meta_arg_of_pericenter": 37.9318,
        "meta_mean_anomaly": 80.8204,
        "meta_ephemeris_type": 0,
        "meta_classification_type": "U",
        "meta_norad_cat_id": 35635,
        "meta_element_set_no": 999,
        "meta_rev_at_epoch": 83334,
        "meta_bstar": 5.4956356e-05,
        "meta_mean_motion_dot": 8.4e-07,
        "meta_mean_motion_ddot": 0,
        "tle_line1": "1 35635U 09039A   25360.00670186  .00000084  00000+0  54956-4 0  9991",
        "tle_line2": "2 35635  82.9559 158.5879 0019949  37.9318  80.8204 13.89930294833349"
      },
      "geometry": {
        "type": "Point",
        "coordinates": [
          166.65623566792928,
          50.06974589589211
        ]
      }
    },
    {
      "type": "Feature",
      "properties": {
        "norad_id": 36519,
        "name": "COSMOS 2463",
        "group": "musson",
        "lat": -79.42677532604223,
        "lon": -122.00071354433764,
        "alt_km": 976.0785088493685,
        "timestamp": "2025-12-26T13:39:19.245900+00:00",
        "meta_object_name": "COSMOS 2463",
        "meta_object_id": "2010-017A",
        "meta_epoch": "2025-12-26T03:57:12.979584",
        "meta_mean_motion": 13.71650325,
        "meta_eccentricity": 0.00348292,
        "meta_inclination": 82.9603,
        "meta_ra_of_asc_node": 16.8464,
        "meta_arg_of_pericenter": 249.4013,
        "meta_mean_anomaly": 177.5936,
        "meta_ephemeris_type": 0,
        "meta_classification_type": "U",
        "meta_norad_cat_id": 36519,
        "meta_element_set_no": 999,
        "meta_rev_at_epoch": 78421,
        "meta_bstar": 3.5998771e-05,
        "meta_mean_motion_dot": 4.7e-07,
        "meta_mean_motion_ddot": 0,
        "tle_line1": "1 36519U 10017A   25360.16473356  .00000047  00000+0  35999-4 0  9993",
        "tle_line2": "2 36519  82.9603  16.8464 0034829 249.4013 177.5936 13.71650325784215"
      },
      "geometry": {
        "type": "Point",
        "coordinates": [
          -122.00071354433764,
          -79.42677532604223
        ]
      }
    }
  ]
}